[
    {
        "Altitude(m)": 558893.8554177776,
        "Argument of Periapsis(deg)": 0.006622991110713501,
        "Eccentricity": 0.0,
        "Inclination(deg)": 53.0,
        "Latitude(deg)": 48.73688418664012,
        "Longitude(deg)": 10.559125773039439,
        "Mean Anomaly(deg)": -249.90840713242244,
        "RAAN(deg)": 349.99014336852804,
        "Satellite Name": "Starlink Shell 1 1546",
        "Satellite Number": 1546,
        "Semi-Major Axis(m)": 6931778.249405717,
        "Time(s)": 190
    },
    {
        "Altitude(m)": 558833.535317475,
        "Argument of Periapsis(deg)": 0.0069715695902247375,
        "Eccentricity": 0.0,
        "Inclination(deg)": 53.0,
        "Latitude(deg)": 48.473091264150646,
        "Longitude(deg)": 11.375789913199686,
        "Mean Anomaly(deg)": -249.28157592886575,
        "RAAN(deg)": 349.9896245984506,
        "Satellite Name": "Starlink Shell 1 1546",
        "Satellite Number": 1546,
        "Semi-Major Axis(m)": 6931778.249405717,
        "Time(s)": 200
    },
    {
        "Altitude(m)": 558771.7938629001,
        "Argument of Periapsis(deg)": 0.007320148069735974,
        "Eccentricity": 0.0,
        "Inclination(deg)": 53.0,
        "Latitude(deg)": 48.2029592062484,
        "Longitude(deg)": 12.183507604923218,
        "Mean Anomaly(deg)": -248.65474472530894,
        "RAAN(deg)": 349.98910582837306,
        "Satellite Name": "Starlink Shell 1 1546",
        "Satellite Number": 1546,
        "Semi-Major Axis(m)": 6931778.249405717,
        "Time(s)": 210
    },
    {
        "Altitude(m)": 558708.6689581994,
        "Argument of Periapsis(deg)": 0.007668726549247212,
        "Eccentricity": 0.0,
        "Inclination(deg)": 53.0,
        "Latitude(deg)": 47.926612474059425,
        "Longitude(deg)": 12.98225041013688,
        "Mean Anomaly(deg)": -248.0279135217523,
        "RAAN(deg)": 349.9885870582956,
        "Satellite Name": "Starlink Shell 1 1546",
        "Satellite Number": 1546,
        "Semi-Major Axis(m)": 6931778.249405717,
        "Time(s)": 220
    },
    {
        "Altitude(m)": 558644.1994120623,
        "Argument of Periapsis(deg)": 0.00801730502875845,
        "Eccentricity": 0.0,
        "Inclination(deg)": 53.0,
        "Latitude(deg)": 47.64417515313538,
        "Longitude(deg)": 13.77200168485356,
        "Mean Anomaly(deg)": -247.40108231819553,
        "RAAN(deg)": 349.98806828821813,
        "Satellite Name": "Starlink Shell 1 1546",
        "Satellite Number": 1546,
        "Semi-Major Axis(m)": 6931778.249405717,
        "Time(s)": 230
    },
    {
        "Altitude(m)": 558578.424918504,
        "Argument of Periapsis(deg)": 0.008365883508269684,
        "Eccentricity": 0.0,
        "Inclination(deg)": 53.0,
        "Latitude(deg)": 47.35577078921804,
        "Longitude(deg)": 14.552756531913625,
        "Mean Anomaly(deg)": -246.77425111463893,
        "RAAN(deg)": 349.98754951814067,
        "Satellite Name": "Starlink Shell 1 1546",
        "Satellite Number": 1546,
        "Semi-Major Axis(m)": 6931778.249405717,
        "Time(s)": 240
    },
    {
        "Altitude(m)": 558511.3860372512,
        "Argument of Periapsis(deg)": 0.008714461987780921,
        "Eccentricity": 0.0,
        "Inclination(deg)": 53.0,
        "Latitude(deg)": 47.061522235200414,
        "Longitude(deg)": 15.324520235320454,
        "Mean Anomaly(deg)": -246.14741991108212,
        "RAAN(deg)": 349.98703074806315,
        "Satellite Name": "Starlink Shell 1 1546",
        "Satellite Number": 1546,
        "Semi-Major Axis(m)": 6931778.249405717,
        "Time(s)": 250
    },
    {
        "Altitude(m)": 558443.1241736407,
        "Argument of Periapsis(deg)": 0.009063040467292158,
        "Eccentricity": 0.0,
        "Inclination(deg)": 53.0,
        "Latitude(deg)": 46.76155150916571,
        "Longitude(deg)": 16.087308205379742,
        "Mean Anomaly(deg)": -245.52058870752535,
        "RAAN(deg)": 349.98651197798574,
        "Satellite Name": "Starlink Shell 1 1546",
        "Satellite Number": 1546,
        "Semi-Major Axis(m)": 6931778.249405717,
        "Time(s)": 260
    },
    {
        "Altitude(m)": 558373.6815581057,
        "Argument of Periapsis(deg)": 0.009411618946803396,
        "Eccentricity": 0.0,
        "Inclination(deg)": 53.0,
        "Latitude(deg)": 46.455979663316896,
        "Longitude(deg)": 16.841145924938598,
        "Mean Anomaly(deg)": -244.8937575039687,
        "RAAN(deg)": 349.9859932079083,
        "Satellite Name": "Starlink Shell 1 1546",
        "Satellite Number": 1546,
        "Semi-Major Axis(m)": 6931778.249405717,
        "Time(s)": 270
    },
    {
        "Altitude(m)": 558303.1012252129,
        "Argument of Periapsis(deg)": 0.009760197426314633,
        "Eccentricity": 0.0,
        "Inclination(deg)": 53.0,
        "Latitude(deg)": 46.14492666355758,
        "Longitude(deg)": 17.586067386722668,
        "Mean Anomaly(deg)": -244.26692630041202,
        "RAAN(deg)": 349.98547443783076,
        "Satellite Name": "Starlink Shell 1 1546",
        "Satellite Number": 1546,
        "Semi-Major Axis(m)": 6931778.249405717,
        "Time(s)": 280
    },
    {
        "Altitude(m)": 558231.4269923007,
        "Argument of Periapsis(deg)": 0.01010877590582587,
        "Eccentricity": 0.0,
        "Inclination(deg)": 53.0,
        "Latitude(deg)": 45.82851127945094,
        "Longitude(deg)": 18.32211505009154,
        "Mean Anomaly(deg)": -243.64009509685528,
        "RAAN(deg)": 349.9849556677533,
        "Satellite Name": "Starlink Shell 1 1546",
        "Satellite Number": 1546,
        "Semi-Major Axis(m)": 6931778.249405717,
        "Time(s)": 290
    },
    {
        "Altitude(m)": 558158.7034376957,
        "Argument of Periapsis(deg)": 0.010457354385337106,
        "Eccentricity": 0.0,
        "Inclination(deg)": 53.0,
        "Latitude(deg)": 45.50685098423401,
        "Longitude(deg)": 19.049339806632425,
        "Mean Anomaly(deg)": -243.01326389329853,
        "RAAN(deg)": 349.98443689767583,
        "Satellite Name": "Starlink Shell 1 1546",
        "Satellite Number": 1546,
        "Semi-Major Axis(m)": 6931778.249405717,
        "Time(s)": 300
    },
    {
        "Altitude(m)": 558084.975878518,
        "Argument of Periapsis(deg)": 0.010805932864848343,
        "Eccentricity": 0.0,
        "Inclination(deg)": 53.0,
        "Latitude(deg)": 45.18006186453556,
        "Longitude(deg)": 19.76779944372553,
        "Mean Anomaly(deg)": -242.38643268974184,
        "RAAN(deg)": 349.9839181275984,
        "Satellite Name": "Starlink Shell 1 1546",
        "Satellite Number": 1546,
        "Semi-Major Axis(m)": 6931778.249405717,
        "Time(s)": 310
    },
    {
        "Altitude(m)": 558010.2903481281,
        "Argument of Periapsis(deg)": 0.01115451134435958,
        "Eccentricity": 0.0,
        "Inclination(deg)": 53.0,
        "Latitude(deg)": 44.848258539427626,
        "Longitude(deg)": 20.477558633572983,
        "Mean Anomaly(deg)": -241.75960148618515,
        "RAAN(deg)": 349.9833993575209,
        "Satellite Name": "Starlink Shell 1 1546",
        "Satellite Number": 1546,
        "Semi-Major Axis(m)": 6931778.249405717,
        "Time(s)": 320
    },
    {
        "Altitude(m)": 557934.6935731692,
        "Argument of Periapsis(deg)": 0.011503089823870818,
        "Eccentricity": 0.0,
        "Inclination(deg)": 53.0,
        "Latitude(deg)": 44.511554088413334,
        "Longitude(deg)": 21.178688936304553,
        "Mean Anomaly(deg)": -241.13277028262846,
        "RAAN(deg)": 349.9828805874434,
        "Satellite Name": "Starlink Shell 1 1546",
        "Satellite Number": 1546,
        "Semi-Major Axis(m)": 6931778.249405717,
        "Time(s)": 330
    },
    {
        "Altitude(m)": 557858.2329502346,
        "Argument of Periapsis(deg)": 0.011851668303382053,
        "Eccentricity": 0.0,
        "Inclination(deg)": 53.0,
        "Latitude(deg)": 44.170059987937044,
        "Longitude(deg)": 21.871267305538094,
        "Mean Anomaly(deg)": -240.50593907907165,
        "RAAN(deg)": 349.9823618173659,
        "Satellite Name": "Starlink Shell 1 1546",
        "Satellite Number": 1546,
        "Semi-Major Axis(m)": 6931778.249405717,
        "Time(s)": 340
    },
    {
        "Altitude(m)": 557780.9565221892,
        "Argument of Periapsis(deg)": 0.012200246782893292,
        "Eccentricity": 0.0,
        "Inclination(deg)": 53.0,
        "Latitude(deg)": 43.82388605600385,
        "Longitude(deg)": 22.555376123163352,
        "Mean Anomaly(deg)": -239.87910787551496,
        "RAAN(deg)": 349.98184304728846,
        "Satellite Name": "Starlink Shell 1 1546",
        "Satellite Number": 1546,
        "Semi-Major Axis(m)": 6931778.249405717,
        "Time(s)": 350
    },
    {
        "Altitude(m)": 557702.9129541507,
        "Argument of Periapsis(deg)": 0.012548825262404526,
        "Eccentricity": 0.0,
        "Inclination(deg)": 53.0,
        "Latitude(deg)": 43.47314040447826,
        "Longitude(deg)": 23.231103251294307,
        "Mean Anomaly(deg)": -239.25227667195827,
        "RAAN(deg)": 349.981324277211,
        "Satellite Name": "Starlink Shell 1 1546",
        "Satellite Number": 1546,
        "Semi-Major Axis(m)": 6931778.249405717,
        "Time(s)": 360
    },
    {
        "Altitude(m)": 557624.1515090916,
        "Argument of Periapsis(deg)": 0.012897403741915765,
        "Eccentricity": 0.0,
        "Inclination(deg)": 53.0,
        "Latitude(deg)": 43.11792939863221,
        "Longitude(deg)": 23.898540589139465,
        "Mean Anomaly(deg)": -238.6254454684016,
        "RAAN(deg)": 349.9808055071335,
        "Satellite Name": "Starlink Shell 1 1546",
        "Satellite Number": 1546,
        "Semi-Major Axis(m)": 6931778.249405717,
        "Time(s)": 370
    }
]